BADR-6                  
1 33154U 08034B   17345.14788800  .00000137  00000-0  00000-0 0  9998
2 33154   0.0585  35.6267 0002368 272.1928 211.4417  1.00270612 34573
